TRITON-1                
1 39427U 13066M   26177.95255807  .00001703  00000+0  20853-3 0  9996
2 39427  97.8242  87.5375 0089110 201.6225 158.1216 14.81734762675534
GOMX-1                  
1 39430U 13066Q   26177.92317303  .00001969  00000+0  29942-3 0  9999
2 39430  97.6486  17.7715 0129847  46.6410 314.5528 14.69492351671344
CUBEBUG-2 (LO-74)       
1 39440U 13066AA  26177.84289460  .00004208  00000+0  38943-3 0  9993
2 39440  97.8903 126.8620 0057442 357.1295   2.9586 14.93837093678432
NEE-02 KRYSAOR          
1 39441U 13066AB  26177.76677494  .00002672  00000+0  29517-3 0  9993
2 39441  97.8892 116.9131 0067124  39.4303 321.1770 14.86659035677626
FUNCUBE-1 (AO-73)       
1 39444U 13066AE  26177.86706572  .00007885  00000+0  48707-3 0  9990
2 39444  97.8271 149.5153 0036628 168.0443 192.1663 15.09599724681126
UWE-3                   
1 39446U 13066AG  26177.84042902  .00004205  00000+0  36187-3 0  9992
2 39446  97.8709 133.9799 0046794 288.3987  71.2149 14.97101122679020
SMDC ONE 2.4            
1 39469U 13072H   26177.55294853  .00010809  00000+0  40766-3 0  9991
2 39469 120.4939  28.2489 0146556  28.9495 331.9615 15.18359041119251
COSMOS 2488 (RODNIK-S 7)
1 39483U 13076A   26177.93880896  .00000054  00000+0  31380-3 0  9994
2 39483  82.4831 162.6192 0020885  75.1921 285.1471 12.42906168567106
COSMOS 2489 (RODNIK-S 8)
1 39484U 13076B   26177.99471329  .00000122  00000+0  80874-3 0  9996
2 39484  82.4867 163.9664 0022698  74.9752 285.3838 12.42880067567161
COSMOS 2490 (RODNIK-S 9)
1 39485U 13076C   26177.96661749  .00000114  00000+0  74696-3 0  9997
2 39485  82.4814 162.0471 0022865  89.8367 270.5333 12.42878948567096
KAZEOSAT 1              
1 39731U 14024A   26177.94368351  .00000116  00000+0  48294-4 0  9994
2 39731  98.3208 250.1484 0001232  74.6073 285.5253 14.42083317639960
COSMOS 2496 (RODNIK-S *)
1 39761U 14028A   26177.92412476  .00000016  00000+0  43663-4 0  9991
2 39761  82.4452 102.6330 0021319  58.8153 301.5013 12.42878848548725
COSMOS 2497 (RODNIK-S *)
1 39762U 14028B   26177.89928185  .00000026  00000+0  11248-3 0  9991
2 39762  82.4500 104.3420 0021838  54.0947 306.2155 12.42894625548724
COSMOS 2498 (RODNIK-S *)
1 39763U 14028C   26177.95670288 -.00000045  00000+0 -39494-3 0  9993
2 39763  82.4461 102.7890 0022566  53.5495 306.7660 12.42980168548763
HODOYOSHI-4             
1 40011U 14033B   26177.98554204  .00001513  00000+0  16931-3 0  9999
2 40011  97.5452   2.3352 0022098 273.8413  86.0278 14.88148221650263
UNISAT-6                
1 40012U 14033C   26177.94937009  .00002671  00000+0  28944-3 0  9997
2 40012  97.7883 330.4899 0045676  37.8677 322.5737 14.88291089647616
DEIMOS-2                
1 40013U 14033D   26177.89637917  .00001258  00000+0  12394-3 0  9999
2 40013  97.5829  52.0444 0001224  54.1298 306.0036 14.93751423639170
BUGSAT-1 (TITA)         
1 40014U 14033E   26177.93932494  .00006478  00000+0  34067-3 0  9993
2 40014  98.0428 271.0586 0028668 145.6578 214.6513 15.15689035657314
SAUDISAT 4              
1 40016U 14033G   26177.92509677  .00000598  00000+0  85330-4 0  9994
2 40016  97.7593 323.7234 0045724  43.1569 317.3212 14.79556302647511
APRIZESAT 9             
1 40018U 14033J   26177.91360181  .00000748  00000+0  11705-3 0  9991
2 40018  97.9071 310.8750 0066459 167.8702 192.4126 14.74227829644996
BRITE-CA1 (TORONTO)     
1 40020U 14033L   26177.88972236  .00000844  00000+0  13452-3 0  9998
2 40020  97.9749 306.6393 0077345 245.4033 113.9102 14.72690941643643
